{"type": "FeatureCollection", "features": [ {"type": "Feature", "properties": {"norad_id": 35435, "name": "COSMOS 2251 DEB", "group": "cosmos-2251-debris", "lat": 22.776508148731498, "lon": -63.32752135551086, "alt_km": 631.5484519513802, "timestamp": "2025-12-02T19:35:50.950647+00:00", "meta": {"OBJECT_NAME": "COSMOS 2251 DEB", "OBJECT_ID": "1993-036AKD", "EPOCH": "2025-12-01T04:42:29.570112", "MEAN_MOTION": 14.77856988, "ECCENTRICITY": 0.0009617, "INCLINATION": 74.0095, "RA_OF_ASC_NODE": 126.7727, "ARG_OF_PERICENTER": 217.2149, "MEAN_ANOMALY": 321.5063, "EPHEMERIS_TYPE": 0, "CLASSIFICATION_TYPE": "U", "NORAD_CAT_ID": 35435, "ELEMENT_SET_NO": 999, "REV_AT_EPOCH": 87368, "BSTAR": 0.0028899, "MEAN_MOTION_DOT": 0.00020833, "MEAN_MOTION_DDOT": 0}, "tle": {"line1": "1 35435U 93036AKD 25335.19617558  .00020833  00000+0  28899-2 0  9994", "line2": "2 35435  74.0095 126.7727 0009617 217.2149 321.5063 14.77856988873683"}}, "geometry": {"type": "Point", "coordinates": [-63.32752135551086, 22.776508148731498]}}, {"type": "Feature", "properties": {"norad_id": 35439, "name": "COSMOS 2251 DEB", "group": "cosmos-2251-debris", "lat": -65.98527665564343, "lon": 11.776367951243277, "alt_km": 865.9022284879329, "timestamp": "2025-12-02T19:35:50.950657+00:00", "meta": {"OBJECT_NAME": "COSMOS 2251 DEB", "OBJECT_ID": "1993-036AKH", "EPOCH": "2025-12-02T05:27:33.223104", "MEAN_MOTION": 13.92736992, "ECCENTRICITY": 0.0241628, "INCLINATION": 74.0171, "RA_OF_ASC_NODE": 152.7492, "ARG_OF_PERICENTER": 324.3535, "MEAN_ANOMALY": 217.5666, "EPHEMERIS_TYPE": 0, "CLASSIFICATION_TYPE": "U", "NORAD_CAT_ID": 35439, "ELEMENT_SET_NO": 999, "REV_AT_EPOCH": 83814, "BSTAR": 0.0017362, "MEAN_MOTION_DOT": 2.829e-05, "MEAN_MOTION_DDOT": 0}, "tle": {"line1": "1 35439U 93036AKH 25336.22746786  .00002829  00000+0  17362-2 0  9997", "line2": "2 35439  74.0171 152.7492 0241628 324.3535 217.5666 13.92736992838142"}}, "geometry": {"type": "Point", "coordinates": [11.776367951243277, -65.98527665564343]}}, {"type": "Feature", "properties": {"norad_id": 35440, "name": "COSMOS 2251 DEB", "group": "cosmos-2251-debris", "lat": 43.98311259179951, "lon": 30.794292695714237, "alt_km": 687.7445734881476, "timestamp": "2025-12-02T19:35:50.950667+00:00", "meta": {"OBJECT_NAME": "COSMOS 2251 DEB", "OBJECT_ID": "1993-036AKJ", "EPOCH": "2025-12-01T23:22:39.601344", "MEAN_MOTION": 14.68713507, "ECCENTRICITY": 0.00688977, "INCLINATION": 74.0163, "RA_OF_ASC_NODE": 228.485, "ARG_OF_PERICENTER": 11.896, "MEAN_ANOMALY": 348.3817, "EPHEMERIS_TYPE": 0, "CLASSIFICATION_TYPE": "U", "NORAD_CAT_ID": 35440, "ELEMENT_SET_NO": 999, "REV_AT_EPOCH": 68607, "BSTAR": 0.0006228083, "MEAN_MOTION_DOT": 3.729e-05, "MEAN_MOTION_DDOT": 0}, "tle": {"line1": "1 35440U 93036AKJ 25335.97406946  .00003729  00000+0  62281-3 0  9992", "line2": "2 35440  74.0163 228.4850 0068897  11.8960 348.3817 14.68713507686074"}}, "geometry": {"type": "Point", "coordinates": [30.794292695714237, 43.98311259179951]}}, {"type": "Feature", "properties": {"norad_id": 35441, "name": "COSMOS 2251 DEB", "group": "cosmos-2251-debris", "lat": -45.32384796664402, "lon": -59.717845610784885, "alt_km": 694.4237437195025, "timestamp": "2025-12-02T19:35:50.950678+00:00", "meta": {"OBJECT_NAME": "COSMOS 2251 DEB", "OBJECT_ID": "1993-036AKK", "EPOCH": "2025-12-02T05:02:18.600000", "MEAN_MOTION": 14.62302982, "ECCENTRICITY": 0.0037692, "INCLINATION": 74.1346, "RA_OF_ASC_NODE": 318.1524, "ARG_OF_PERICENTER": 218.5218, "MEAN_ANOMALY": 141.3259, "EPHEMERIS_TYPE": 0, "CLASSIFICATION_TYPE": "U", "NORAD_CAT_ID": 35441, "ELEMENT_SET_NO": 999, "REV_AT_EPOCH": 87276, "BSTAR": 0.0020249, "MEAN_MOTION_DOT": 0.00010311, "MEAN_MOTION_DDOT": 0}, "tle": {"line1": "1 35441U 93036AKK 25336.20993750  .00010311  00000+0  20249-2 0  9996", "line2": "2 35441  74.1346 318.1524 0037692 218.5218 141.3259 14.62302982872764"}}, "geometry": {"type": "Point", "coordinates": [-59.717845610784885, -45.32384796664402]}}, {"type": "Feature", "properties": {"norad_id": 35442, "name": "COSMOS 2251 DEB", "group": "cosmos-2251-debris", "lat": 36.62181438490109, "lon": -73.47260298916889, "alt_km": 611.5164351948988, "timestamp": "2025-12-02T19:35:50.950688+00:00", "meta": {"OBJECT_NAME": "COSMOS 2251 DEB", "OBJECT_ID": "1993-036AKL", "EPOCH": "2025-12-02T02:46:45.175296", "MEAN_MOTION": 14.8366998, "ECCENTRICITY": 0.00046371, "INCLINATION": 74.0255, "RA_OF_ASC_NODE": 120.209, "ARG_OF_PERICENTER": 134.2231, "MEAN_ANOMALY": 225.9329, "EPHEMERIS_TYPE": 0, "CLASSIFICATION_TYPE": "U", "NORAD_CAT_ID": 35442, "ELEMENT_SET_NO": 999, "REV_AT_EPOCH": 87195, "BSTAR": 0.0035193609, "MEAN_MOTION_DOT": 0.0002917, "MEAN_MOTION_DDOT": 0}, "tle": {"line1": "1 35442U 93036AKL 25336.11580064  .00029170  00000+0  35194-2 0  9995", "line2": "2 35442  74.0255 120.2090 0004637 134.2231 225.9329 14.83669980871959"}}, "geometry": {"type": "Point", "coordinates": [-73.47260298916889, 36.62181438490109]}}, {"type": "Feature", "properties": {"norad_id": 35443, "name": "COSMOS 2251 DEB", "group": "cosmos-2251-debris", "lat": 67.03213626656135, "lon": 129.04430501896874, "alt_km": 529.4988711043834, "timestamp": "2025-12-02T19:35:50.950699+00:00", "meta": {"OBJECT_NAME": "COSMOS 2251 DEB", "OBJECT_ID": "1993-036AKM", "EPOCH": "2025-12-02T11:05:42.726048", "MEAN_MOTION": 14.95411569, "ECCENTRICITY": 0.0073981, "INCLINATION": 73.987, "RA_OF_ASC_NODE": 352.4195, "ARG_OF_PERICENTER": 137.5818, "MEAN_ANOMALY": 223.1119, "EPHEMERIS_TYPE": 0, "CLASSIFICATION_TYPE": "U", "NORAD_CAT_ID": 35443, "ELEMENT_SET_NO": 999, "REV_AT_EPOCH": 86724, "BSTAR": 0.0037916, "MEAN_MOTION_DOT": 0.000445, "MEAN_MOTION_DDOT": 0}, "tle": {"line1": "1 35443U 93036AKM 25336.46230007  .00044500  00000+0  37916-2 0  9991", "line2": "2 35443  73.9870 352.4195 0073981 137.5818 223.1119 14.95411569867246"}}, "geometry": {"type": "Point", "coordinates": [129.04430501896874, 67.03213626656135]}}, {"type": "Feature", "properties": {"norad_id": 35445, "name": "COSMOS 2251 DEB", "group": "cosmos-2251-debris", "lat": 23.613143570942086, "lon": -33.89217801955722, "alt_km": 602.8256247240433, "timestamp": "2025-12-02T19:35:50.950710+00:00", "meta": {"OBJECT_NAME": "COSMOS 2251 DEB", "OBJECT_ID": "1993-036AKP", "EPOCH": "2025-12-01T05:37:58.814400", "MEAN_MOTION": 14.58784895, "ECCENTRICITY": 0.0143608, "INCLINATION": 74.0353, "RA_OF_ASC_NODE": 321.9314, "ARG_OF_PERICENTER": 51.7494, "MEAN_ANOMALY": 309.6492, "EPHEMERIS_TYPE": 0, "CLASSIFICATION_TYPE": "U", "NORAD_CAT_ID": 35445, "ELEMENT_SET_NO": 999, "REV_AT_EPOCH": 87161, "BSTAR": 0.0018521, "MEAN_MOTION_DOT": 9.974e-05, "MEAN_MOTION_DDOT": 0}, "tle": {"line1": "1 35445U 93036AKP 25335.23470850  .00009974  00000+0  18521-2 0  9996", "line2": "2 35445  74.0353 321.9314 0143608  51.7494 309.6492 14.58784895871615"}}, "geometry": {"type": "Point", "coordinates": [-33.89217801955722, 23.613143570942086]}}, {"type": "Feature", "properties": {"norad_id": 35446, "name": "COSMOS 2251 DEB", "group": "cosmos-2251-debris", "lat": -36.43142735848372, "lon": 169.1359444508661, "alt_km": 742.6432790087292, "timestamp": "2025-12-02T19:35:50.950720+00:00", "meta": {"OBJECT_NAME": "COSMOS 2251 DEB", "OBJECT_ID": "1993-036AKQ", "EPOCH": "2025-11-30T07:11:01.736160", "MEAN_MOTION": 14.5460995, "ECCENTRICITY": 0.00744354, "INCLINATION": 74.0466, "RA_OF_ASC_NODE": 341.7043, "ARG_OF_PERICENTER": 103.5149, "MEAN_ANOMALY": 257.4321, "EPHEMERIS_TYPE": 0, "CLASSIFICATION_TYPE": "U", "NORAD_CAT_ID": 35446, "ELEMENT_SET_NO": 999, "REV_AT_EPOCH": 87827, "BSTAR": 0.00010353473, "MEAN_MOTION_DOT": 4.29e-06, "MEAN_MOTION_DDOT": 0}, "tle": {"line1": "1 35446U 93036AKQ 25334.29932565  .00000429  00000+0  10353-3 0  9990", "line2": "2 35446  74.0466 341.7043 0074435 103.5149 257.4321 14.54609950878278"}}, "geometry": {"type": "Point", "coordinates": [169.1359444508661, -36.43142735848372]}}, {"type": "Feature", "properties": {"norad_id": 35448, "name": "COSMOS 2251 DEB", "group": "cosmos-2251-debris", "lat": 73.84314418494083, "lon": -156.9977262486182, "alt_km": 712.248936960591, "timestamp": "2025-12-02T19:35:50.950731+00:00", "meta": {"OBJECT_NAME": "COSMOS 2251 DEB", "OBJECT_ID": "1993-036AKS", "EPOCH": "2025-11-30T02:46:57.396576", "MEAN_MOTION": 14.54072836, "ECCENTRICITY": 0.00108374, "INCLINATION": 73.9021, "RA_OF_ASC_NODE": 113.5661, "ARG_OF_PERICENTER": 293.2846, "MEAN_ANOMALY": 66.7175, "EPHEMERIS_TYPE": 0, "CLASSIFICATION_TYPE": "U", "NORAD_CAT_ID": 35448, "ELEMENT_SET_NO": 999, "REV_AT_EPOCH": 87151, "BSTAR": 0.0011243379, "MEAN_MOTION_DOT": 4.725e-05, "MEAN_MOTION_DDOT": 0}, "tle": {"line1": "1 35448U 93036AKS 25334.11594209  .00004725  00000+0  11243-2 0  9993", "line2": "2 35448  73.9021 113.5661 0010837 293.2846  66.7175 14.54072836871518"}}, "geometry": {"type": "Point", "coordinates": [-156.9977262486182, 73.84314418494083]}}, {"type": "Feature", "properties": {"norad_id": 35451, "name": "COSMOS 2251 DEB", "group": "cosmos-2251-debris", "lat": 60.37609264846667, "lon": -86.38107371048406, "alt_km": 463.3712829313754, "timestamp": "2025-12-02T19:35:50.950742+00:00", "meta": {"OBJECT_NAME": "COSMOS 2251 DEB", "OBJECT_ID": "1993-036AKV", "EPOCH": "2025-12-02T09:42:30.995424", "MEAN_MOTION": 15.34019463, "ECCENTRICITY": 0.0039774, "INCLINATION": 73.9303, "RA_OF_ASC_NODE": 124.9673, "ARG_OF_PERICENTER": 13.4643, "MEAN_ANOMALY": 346.7612, "EPHEMERIS_TYPE": 0, "CLASSIFICATION_TYPE": "U", "NORAD_CAT_ID": 35451, "ELEMENT_SET_NO": 999, "REV_AT_EPOCH": 67247, "BSTAR": 0.0016761, "MEAN_MOTION_DOT": 0.00056987, "MEAN_MOTION_DDOT": 0}, "tle": {"line1": "1 35451U 93036AKV 25336.40452541  .00056987  00000+0  16761-2 0  9990", "line2": "2 35451  73.9303 124.9673 0039774  13.4643 346.7612 15.34019463672479"}}, "geometry": {"type": "Point", "coordinates": [-86.38107371048406, 60.37609264846667]}}]}